STARLINK-1575
1 16349C 20062AB  21326.14273391  .00004151  00000-0  27816-3 0  3262
2 16349  53.0721 173.0134 0001933  76.3834 227.8147 15.06388199    14
